[{"OBJECT_NAME":"STARLINK-30284","OBJECT_ID":"2023-144P","EPOCH":"2026-03-09T22:00:01.999584","MEAN_MOTION":15.19461347,"ECCENTRICITY":0.00015937,"INCLINATION":42.9999,"RA_OF_ASC_NODE":247.0398,"ARG_OF_PERICENTER":298.4522,"MEAN_ANOMALY":150.6715,"EPHEMERIS_TYPE":0,"CLASSIFICATION_TYPE":"U","NORAD_CAT_ID":57877,"ELEMENT_SET_NO":999,"REV_AT_EPOCH":578,"BSTAR":0.049571695,"MEAN_MOTION_DOT":0.01165418,"MEAN_MOTION_DDOT":0},{"OBJECT_NAME":"YAOGAN-43 02E","OBJECT_ID":"2024-156E","EPOCH":"2026-03-09T13:12:54.412128","MEAN_MOTION":15.23060161,"ECCENTRICITY":0.0005405,"INCLINATION":34.9961,"RA_OF_ASC_NODE":104.8049,"ARG_OF_PERICENTER":120.2112,"MEAN_ANOMALY":239.9138,"EPHEMERIS_TYPE":0,"CLASSIFICATION_TYPE":"U","NORAD_CAT_ID":60949,"ELEMENT_SET_NO":999,"REV_AT_EPOCH":8424,"BSTAR":0.00066597,"MEAN_MOTION_DOT":0.00016075,"MEAN_MOTION_DDOT":0}]
